
# Worst residual: 12.82 km
# MJD 60445.000000 (2024 May 15  0:00)
A116CgX = A116I21
1 79925U 24999ZZO 24136.49919926  .00000000  00000-0  00000-0 0 23952
2 79925 027.8122 000.6239 9046494 150.4769 285.6065 00.44200214    03

# Worst residual: 19.53 km
# MJD 60446.000000 (2024 May 16  0:00)
A116CgX = A116I21
1 79925U 24999ZZO 24137.49919926  .00000000  00000-0  00000-0 0 23953
2 79925 027.8309 000.5352 9046427 150.6176 084.6803 00.44195623    09

# Worst residual: 4.57 km
# MJD 60447.000000 (2024 May 17  0:00)
A116CgX = A116I21
1 79925U 24999ZZO 24138.49919926  .00000000  00000-0  00000-0 0 23954
2 79925 027.7997 000.5328 9048589 150.6445 243.8894 00.44216284    00

# Worst residual: 22.03 km
# MJD 60448.000000 (2024 May 18  0:00)
A116CgX = A116I21
1 79925U 24999ZZO 24139.49919926  .00000000  00000-0  00000-0 0 23955
2 79925 027.8243 000.4530 9047608 150.7624 043.0085 00.44201700    09

# Worst residual: 2.59 km
# MJD 60449.000000 (2024 May 19  0:00)
A116CgX = A116I21
1 79925U 24999ZZO 24140.49919926  .00000000  00000-0  00000-0 0 23957
2 79925 027.7986 000.4356 9050237 150.8107 202.1651 00.44219861    01

# Worst residual: 10.94 km
# MJD 60450.000000 (2024 May 20  0:00)
A116CgX = A116I21
1 79925U 24999ZZO 24141.49919926  .00000000  00000-0  00000-0 0 23958
2 79925 027.8256 000.3637 9048015 150.9163 001.2750 00.44243501    03

# Worst residual: 4.97 km
# MJD 60451.000000 (2024 May 21  0:00)
A116CgX = A116I21
1 79925U 24999ZZO 24142.49919926  .00000000  00000-0  00000-0 0 23959
2 79925 027.8070 000.3285 9050562 150.9905 160.4087 00.44222845    09

# Worst residual: 15.68 km
# MJD 60452.000000 (2024 May 22  0:00)
A116CgX = A116I21
1 79925U 24999ZZO 24143.49919926  .00000000  00000-0  00000-0 0 23950
2 79925 027.8353 000.2600 9047427 151.0898 319.4781 00.44232973    02

# Worst residual: 8.59 km
# MJD 60453.000000 (2024 May 23  0:00)
A116CgX = A116I21
1 79925U 24999ZZO 24144.49919926  .00000000  00000-0  00000-0 0 23951
2 79925 027.8238 000.2092 9049725 151.1758 118.6326 00.44230630    00

# Worst residual: 9.77 km
# MJD 60454.000000 (2024 May 24  0:00)
A116CgX = A116I21
1 79925U 24999ZZO 24145.49919926  .00000000  00000-0  00000-0 0 23952
2 79925 027.8153 000.1747 9047695 151.2490 277.7580 00.44224542    04

# Worst residual: 18.78 km
# MJD 60455.000000 (2024 May 25  0:00)
A116CgX = A116I21
1 79925U 24999ZZO 24146.49919926  .00000000  00000-0  00000-0 0 23953
2 79925 027.8448 000.0737 9046083 151.3745 076.8998 00.44224042    09

# Worst residual: 5.29 km
# MJD 60456.000000 (2024 May 26  0:00)
A116CgX = A116I21
1 79925U 24999ZZO 24147.49919926  .00000000  00000-0  00000-0 0 23954
2 79925 027.8011 000.0906 9050018 151.3872 236.0351 00.44228231    04

# Worst residual: 11.34 km
# MJD 60457.000000 (2024 May 27  0:00)
A116CgX = A116I21
1 79925U 24999ZZO 24148.49919926  .00000000  00000-0  00000-0 0 23955
2 79925 027.8264 000.0135 9048923 151.5019 035.2007 00.44216524    04

# Worst residual: 7.57 km
# MJD 60458.000000 (2024 May 28  0:00)
A116CgX = A116I21
1 79925U 24999ZZO 24149.49919926  .00000000  00000-0  00000-0 0 23956
2 79925 027.7952 000.0028 9054848 151.5459 194.1698 00.44205576    05

# Worst residual: 19.62 km
# MJD 60459.000000 (2024 May 29  0:00)
A116CgX = A116I21
1 79925U 24999ZZO 24150.49919926  .00000000  00000-0  00000-0 0 23958
2 79925 027.8188 359.9339 9057040 151.6756 353.2804 00.44220014    07

# Worst residual: 11.07 km
# MJD 60460.000000 (2024 May 30  0:00)
A116CgX = A116I21
1 79925U 24999ZZO 24151.49919926  .00000000  00000-0  00000-0 0 23959
2 79925 027.7948 359.9034 9056833 151.7776 152.3063 00.44189509    02

# Worst residual: 7.61 km
# MJD 60461.000000 (2024 May 31  0:00)
A116CgX = A116I21
1 79925U 24999ZZO 24152.49919926  .00000000  00000-0  00000-0 0 23950
2 79925 027.8045 359.8513 9053750 151.8814 311.1634 00.44196164    05

# Worst residual: 8.82 km
# MJD 60462.000000 (2024 Jun  1  0:00)
A116CgX = A116I21
1 79925U 24999ZZO 24153.49919926  .00000000  00000-0  00000-0 0 23951
2 79925 027.7989 359.7921 9053160 152.0076 110.2947 00.44220059    07

# Worst residual: 12.58 km
# MJD 60463.000000 (2024 Jun  2  0:00)
A116CgX = A116I21
1 79925U 24999ZZO 24154.49919926  .00000000  00000-0  00000-0 0 23952
2 79925 027.7795 359.7687 9049931 152.0702 269.4003 00.44214877    09

# Worst residual: 14.12 km
# MJD 60464.000000 (2024 Jun  3  0:00)
A116CgX = A116I21
1 79925U 24999ZZO 24155.49919926  .00000000  00000-0  00000-0 0 23953
2 79925 027.8043 359.6797 9046914 152.1848 068.5042 00.44221260    02

# Worst residual: 4.87 km
# MJD 60465.000000 (2024 Jun  4  0:00)
A116CgX = A116I21
1 79925U 24999ZZO 24156.49919926  .00000000  00000-0  00000-0 0 23954
2 79925 027.7678 359.6813 9051098 152.2131 227.6590 00.44234379    00

# Worst residual: 18.73 km
# MJD 60466.000000 (2024 Jun  5  0:00)
A116CgX = A116I21
1 79925U 24999ZZO 24157.49919926  .00000000  00000-0  00000-0 0 23955
2 79925 027.7925 359.6070 9047420 152.3113 026.8252 00.44267669    07

# Worst residual: 3.39 km
# MJD 60467.000000 (2024 Jun  6  0:00)
A116CgX = A116I21
1 79925U 24999ZZO 24158.49919926  .00000000  00000-0  00000-0 0 23956
2 79925 027.7669 359.5860 9052483 152.3698 185.8667 00.44225712    00

# Worst residual: 13.40 km
# MJD 60468.000000 (2024 Jun  7  0:00)
A116CgX = A116I21
1 79925U 24999ZZO 24159.49919926  .00000000  00000-0  00000-0 0 23957
2 79925 027.7934 359.5172 9050262 152.4791 344.9851 00.44245736    00

# Worst residual: 5.74 km
# MJD 60469.000000 (2024 Jun  8  0:00)
A116CgX = A116I21
1 79925U 24999ZZO 24160.49919926  .00000000  00000-0  00000-0 0 23959
2 79925 027.7761 359.4773 9053131 152.5554 144.0920 00.44220222    09
